start=new Date('2022-04-04T00:00:00.000Z').valueOf();
sats=[{"OBJECT_TYPE":"PAYLOAD","CENTER_NAME":"EARTH","FILE":"3386965","GP_ID":"200382052","RA_OF_ASC_NODE":"320.4305","REF_FRAME":"TEME","TIME_SYSTEM":"UTC","RCS_SIZE":"LARGE","EPHEMERIS_TYPE":"0","NORAD_CAT_ID":"51796","APOAPSIS":"418.059","ELEMENT_SET_NO":"999","DECAY_DATE":null,"EPOCH":"2022-04-03T22:00:00.999936","INCLINATION":"53.2155","TLE_LINE2":"2 51796  53.2155 320.4305 0001694  46.7514 219.1065 15.49938604  3685","LAUNCH_DATE":"2022-02-25","MEAN_MOTION":"15.49938604","PERIAPSIS":"415.756","MEAN_ELEMENT_THEORY":"SGP4","TLE_LINE1":"1 51796U 22017AE  22093.91667824 -.00092750  00000-0 -16424-2 0  9993","OBJECT_ID":"2022-017AE","MEAN_MOTION_DOT":"-0.00092750","MEAN_ANOMALY":"219.1065","PERIOD":"92.907","OBJECT_NAME":"STARLINK-3630","COUNTRY_CODE":"US","MEAN_MOTION_DDOT":"0.0000000000000","CLASSIFICATION_TYPE":"U","ARG_OF_PERICENTER":"46.7514","ECCENTRICITY":"0.00016940","BSTAR":"-0.00164240000000","SEMIMAJOR_AXIS":"6795.043","SITE":"AFWTR","REV_AT_EPOCH":"368"},{"FILE":"3386965","OBJECT_TYPE":"PAYLOAD","CENTER_NAME":"EARTH","EPHEMERIS_TYPE":"0","APOAPSIS":"416.871","NORAD_CAT_ID":"51797","RA_OF_ASC_NODE":"320.4225","GP_ID":"200382665","REF_FRAME":"TEME","TIME_SYSTEM":"UTC","RCS_SIZE":"LARGE","EPOCH":"2022-04-03T22:00:00.999936","TLE_LINE2":"2 51797  53.2174 320.4225 0001237  64.6794 285.2914 15.50238844  3699","LAUNCH_DATE":"2022-02-25","INCLINATION":"53.2174","PERIAPSIS":"415.190","MEAN_ELEMENT_THEORY":"SGP4","MEAN_MOTION":"15.50238844","DECAY_DATE":null,"ELEMENT_SET_NO":"999","OBJECT_ID":"2022-017AF","MEAN_MOTION_DOT":"-0.00470787","TLE_LINE1":"1 51797U 22017AF  22093.91667824 -.00470787  00000-0 -86859-2 0  9993","COUNTRY_CODE":"US","MEAN_MOTION_DDOT":"0.0000000000000","PERIOD":"92.889","MEAN_ANOMALY":"285.2914","OBJECT_NAME":"STARLINK-3627","CLASSIFICATION_TYPE":"U","ARG_OF_PERICENTER":"64.6794","BSTAR":"-0.00868590000000","ECCENTRICITY":"0.00012370","REV_AT_EPOCH":"369","SITE":"AFWTR","SEMIMAJOR_AXIS":"6794.165"},{"TIME_SYSTEM":"UTC","RA_OF_ASC_NODE":"320.4284","GP_ID":"200382270","REF_FRAME":"TEME","RCS_SIZE":"LARGE","NORAD_CAT_ID":"51798","APOAPSIS":"417.996","EPHEMERIS_TYPE":"0","OBJECT_TYPE":"PAYLOAD","CENTER_NAME":"EARTH","FILE":"3386965","TLE_LINE1":"1 51798U 22017AG  22093.91667824 -.00050138  00000-0 -87967-3 0  9990","MEAN_MOTION_DOT":"-0.00050138","OBJECT_ID":"2022-017AG","ELEMENT_SET_NO":"999","DECAY_DATE":null,"LAUNCH_DATE":"2022-02-25","TLE_LINE2":"2 51798  53.2167 320.4284 0001561  47.2058 226.2972 15.49929168  3689","INCLINATION":"53.2167","EPOCH":"2022-04-03T22:00:00.999936","MEAN_ELEMENT_THEORY":"SGP4","PERIAPSIS":"415.874","MEAN_MOTION":"15.49929168","ARG_OF_PERICENTER":"47.2058","CLASSIFICATION_TYPE":"U","OBJECT_NAME":"STARLINK-3634","MEAN_ANOMALY":"226.2972","PERIOD":"92.907","MEAN_MOTION_DDOT":"0.0000000000000","COUNTRY_CODE":"US","SEMIMAJOR_AXIS":"6795.070","SITE":"AFWTR","REV_AT_EPOCH":"368","ECCENTRICITY":"0.00015610","BSTAR":"-0.00087967000000"},{"RCS_SIZE":"LARGE","TIME_SYSTEM":"UTC","REF_FRAME":"TEME","GP_ID":"200382154","RA_OF_ASC_NODE":"320.4181","NORAD_CAT_ID":"51799","APOAPSIS":"415.291","EPHEMERIS_TYPE":"0","OBJECT_TYPE":"PAYLOAD","CENTER_NAME":"EARTH","FILE":"3386965","TLE_LINE1":"1 51799U 22017AH  22093.91667824 -.00725302  00000-0 -13341-1 0  9996","MEAN_MOTION_DOT":"-0.00725302","OBJECT_ID":"2022-017AH","DECAY_DATE":null,"ELEMENT_SET_NO":"999","MEAN_MOTION":"15.50843902","PERIAPSIS":"413.235","MEAN_ELEMENT_THEORY":"SGP4","TLE_LINE2":"2 51799  53.2174 320.4181 0001513  41.6707 338.0565 15.50843902  3694","INCLINATION":"53.2174","LAUNCH_DATE":"2022-02-25","EPOCH":"2022-04-03T22:00:00.999936","ARG_OF_PERICENTER":"41.6707","CLASSIFICATION_TYPE":"U","OBJECT_NAME":"STARLINK-3637","MEAN_ANOMALY":"338.0565","PERIOD":"92.853","MEAN_MOTION_DDOT":"0.0000000000000","COUNTRY_CODE":"US","SEMIMAJOR_AXIS":"6792.398","SITE":"AFWTR","REV_AT_EPOCH":"369","ECCENTRICITY":"0.00015130","BSTAR":"-0.01334100000000"},{"ARG_OF_PERICENTER":"57.6444","CLASSIFICATION_TYPE":"U","MEAN_MOTION_DDOT":"0.0000000000000","COUNTRY_CODE":"US","OBJECT_NAME":"STARLINK-3600","MEAN_ANOMALY":"229.2767","PERIOD":"92.906","REV_AT_EPOCH":"368","SITE":"AFWTR","SEMIMAJOR_AXIS":"6795.017","BSTAR":"-0.00160370000000","ECCENTRICITY":"0.00013320","APOAPSIS":"417.787","NORAD_CAT_ID":"51800","EPHEMERIS_TYPE":"0","TIME_SYSTEM":"UTC","GP_ID":"200382373","REF_FRAME":"TEME","RA_OF_ASC_NODE":"320.4252","RCS_SIZE":"LARGE","FILE":"3386965","OBJECT_TYPE":"PAYLOAD","CENTER_NAME":"EARTH","MEAN_MOTION_DOT":"-0.00090624","OBJECT_ID":"2022-017AJ","TLE_LINE1":"1 51800U 22017AJ  22093.91667824 -.00090624  00000-0 -16037-2 0  9997","TLE_LINE2":"2 51800  53.2157 320.4252 0001332  57.6444 229.2767 15.49947333  3686","INCLINATION":"53.2157","LAUNCH_DATE":"2022-02-25","EPOCH":"2022-04-03T22:00:00.999936","MEAN_ELEMENT_THEORY":"SGP4","PERIAPSIS":"415.977","MEAN_MOTION":"15.49947333","ELEMENT_SET_NO":"999","DECAY_DATE":null},{"PERIAPSIS":"415.830","MEAN_MOTION":"15.49878900","MEAN_ELEMENT_THEORY":"SGP4","LAUNCH_DATE":"2022-02-25","TLE_LINE2":"2 51801  53.2173 320.4358 0001843  51.2745 206.7259 15.49878900  3682","INCLINATION":"53.2173","EPOCH":"2022-04-03T22:00:00.999936","DECAY_DATE":null,"ELEMENT_SET_NO":"999","MEAN_MOTION_DOT":"0.00006035","OBJECT_ID":"2022-017AK","TLE_LINE1":"1 51801U 22017AK  22093.91667824  .00006035  00000-0  11423-3 0  9994","FILE":"3386965","OBJECT_TYPE":"PAYLOAD","CENTER_NAME":"EARTH","NORAD_CAT_ID":"51801","APOAPSIS":"418.334","EPHEMERIS_TYPE":"0","RCS_SIZE":"LARGE","TIME_SYSTEM":"UTC","REF_FRAME":"TEME","GP_ID":"200382579","RA_OF_ASC_NODE":"320.4358","BSTAR":"0.00011423000000","ECCENTRICITY":"0.00018430","SITE":"AFWTR","REV_AT_EPOCH":"368","SEMIMAJOR_AXIS":"6795.217","MEAN_MOTION_DDOT":"0.0000000000000","COUNTRY_CODE":"US","OBJECT_NAME":"STARLINK-3592","MEAN_ANOMALY":"206.7259","PERIOD":"92.910","ARG_OF_PERICENTER":"51.2745","CLASSIFICATION_TYPE":"U"},{"TLE_LINE1":"1 51802U 22017AL  22093.91667824 -.00336995  00000-0 -61366-2 0  9998","OBJECT_ID":"2022-017AL","MEAN_MOTION_DOT":"-0.00336995","DECAY_DATE":null,"ELEMENT_SET_NO":"999","EPOCH":"2022-04-03T22:00:00.999936","INCLINATION":"53.2174","TLE_LINE2":"2 51802  53.2174 320.4135 0001262  76.7233 275.9249 15.50122369  3697","LAUNCH_DATE":"2022-02-25","PERIAPSIS":"415.513","MEAN_ELEMENT_THEORY":"SGP4","MEAN_MOTION":"15.50122369","RA_OF_ASC_NODE":"320.4135","GP_ID":"200381951","REF_FRAME":"TEME","TIME_SYSTEM":"UTC","RCS_SIZE":"LARGE","EPHEMERIS_TYPE":"0","NORAD_CAT_ID":"51802","APOAPSIS":"417.228","CENTER_NAME":"EARTH","OBJECT_TYPE":"PAYLOAD","FILE":"3386965","SEMIMAJOR_AXIS":"6794.505","REV_AT_EPOCH":"369","SITE":"AFWTR","ECCENTRICITY":"0.00012620","BSTAR":"-0.00613660000000","CLASSIFICATION_TYPE":"U","ARG_OF_PERICENTER":"76.7233","MEAN_ANOMALY":"275.9249","PERIOD":"92.896","OBJECT_NAME":"STARLINK-3557","COUNTRY_CODE":"US","MEAN_MOTION_DDOT":"0.0000000000000"},{"FILE":"3386965","CENTER_NAME":"EARTH","OBJECT_TYPE":"PAYLOAD","EPHEMERIS_TYPE":"0","APOAPSIS":"417.898","NORAD_CAT_ID":"51803","RCS_SIZE":"LARGE","GP_ID":"200382476","RA_OF_ASC_NODE":"320.4267","REF_FRAME":"TEME","TIME_SYSTEM":"UTC","MEAN_MOTION":"15.49928589","PERIAPSIS":"415.975","MEAN_ELEMENT_THEORY":"SGP4","EPOCH":"2022-04-03T22:00:00.999936","TLE_LINE2":"2 51803  53.2150 320.4267 0001415  45.0786 236.0827 15.49928589  3685","INCLINATION":"53.2150","LAUNCH_DATE":"2022-02-25","DECAY_DATE":null,"ELEMENT_SET_NO":"999","OBJECT_ID":"2022-017AM","MEAN_MOTION_DOT":"-0.00083487","TLE_LINE1":"1 51803U 22017AM  22093.91667824 -.00083487  00000-0 -14764-2 0  9994","COUNTRY_CODE":"US","MEAN_MOTION_DDOT":"0.0000000000000","MEAN_ANOMALY":"236.0827","PERIOD":"92.908","OBJECT_NAME":"STARLINK-3544","CLASSIFICATION_TYPE":"U","ARG_OF_PERICENTER":"45.0786","BSTAR":"-0.00147640000000","ECCENTRICITY":"0.00014150","REV_AT_EPOCH":"368","SITE":"AFWTR","SEMIMAJOR_AXIS":"6795.072"},{"BSTAR":"0.00012321000000","ECCENTRICITY":"0.00010990","SITE":"AFWTR","REV_AT_EPOCH":"369","SEMIMAJOR_AXIS":"6727.992","MEAN_MOTION_DDOT":"0.0000000000000","COUNTRY_CODE":"US","OBJECT_NAME":"STARLINK-3601","MEAN_ANOMALY":"189.6172","PERIOD":"91.535","ARG_OF_PERICENTER":"74.7619","CLASSIFICATION_TYPE":"U","TLE_LINE2":"2 51804  53.2177 319.1051 0001099  74.7619 189.6172 15.73166122  3694","INCLINATION":"53.2177","LAUNCH_DATE":"2022-02-25","EPOCH":"2022-04-03T22:00:00.999936","MEAN_ELEMENT_THEORY":"SGP4","PERIAPSIS":"349.117","MEAN_MOTION":"15.73166122","ELEMENT_SET_NO":"999","DECAY_DATE":null,"MEAN_MOTION_DOT":"0.00016681","OBJECT_ID":"2022-017AN","TLE_LINE1":"1 51804U 22017AN  22093.91667824  .00016681  00000-0  12321-3 0  9993","FILE":"3386965","CENTER_NAME":"EARTH","OBJECT_TYPE":"PAYLOAD","NORAD_CAT_ID":"51804","APOAPSIS":"350.596","EPHEMERIS_TYPE":"0","TIME_SYSTEM":"UTC","GP_ID":"200382053","REF_FRAME":"TEME","RA_OF_ASC_NODE":"319.1051","RCS_SIZE":"LARGE"},{"MEAN_MOTION_DOT":"0.00050935","OBJECT_ID":"2022-017AP","TLE_LINE1":"1 51805U 22017AP  22093.91667824  .00050935  00000-0  36637-3 0  9990","TLE_LINE2":"2 51805  53.2148 319.1193 0001267  82.5353 170.4976 15.73120472  3697","LAUNCH_DATE":"2022-02-25","INCLINATION":"53.2148","EPOCH":"2022-04-03T22:00:00.999936","MEAN_MOTION":"15.73120472","PERIAPSIS":"349.134","MEAN_ELEMENT_THEORY":"SGP4","ELEMENT_SET_NO":"999","DECAY_DATE":null,"NORAD_CAT_ID":"51805","APOAPSIS":"350.839","EPHEMERIS_TYPE":"0","TIME_SYSTEM":"UTC","REF_FRAME":"TEME","GP_ID":"200382666","RA_OF_ASC_NODE":"319.1193","RCS_SIZE":"LARGE","FILE":"3386965","CENTER_NAME":"EARTH","OBJECT_TYPE":"PAYLOAD","SITE":"AFWTR","REV_AT_EPOCH":"369","SEMIMAJOR_AXIS":"6728.122","BSTAR":"0.00036637000000","ECCENTRICITY":"0.00012670","ARG_OF_PERICENTER":"82.5353","CLASSIFICATION_TYPE":"U","MEAN_MOTION_DDOT":"0.0000000000000","COUNTRY_CODE":"US","OBJECT_NAME":"STARLINK-3605","MEAN_ANOMALY":"170.4976","PERIOD":"91.538"}];
